OBJECT_NAME,OBJECT_ID,EPOCH,MEAN_MOTION,ECCENTRICITY,INCLINATION,RA_OF_ASC_NODE,ARG_OF_PERICENTER,MEAN_ANOMALY,EPHEMERIS_TYPE,CLASSIFICATION_TYPE,NORAD_CAT_ID,ELEMENT_SET_NO,REV_AT_EPOCH,BSTAR,MEAN_MOTION_DOT,MEAN_MOTION_DDOT
EYESAT A (AO-27),1993-061C,2026-07-13T03:37:54.441120,14.30948752,.0008876,98.6869,261.5539,31.5428,328.6285,0,U,22825,999,71071,.32598E-4,.41E-6,0
ITAMSAT (IO-26),1993-061D,2026-07-13T02:57:06.044832,14.31376322,.0009086,98.6817,261.4457,15.3060,344.8396,0,U,22826,999,71102,.29299E-4,.33E-6,0
RADIO ROSTO (RS15),1994-085A,2026-07-13T04:34:25.521024,11.27583551,.0156833,64.8159,261.1629,359.0766,0.9847,0,U,23439,999,29883,.68239E-3,-.18E-6,0
JAS-2 (FO-29),1996-046B,2026-07-12T12:32:04.080480,13.53275422,.0350477,98.5221,38.9215,30.8650,331.2590,0,U,24278,999,47659,.54922856E-4,.2E-6,0
FORTE,1997-047A,2026-07-12T17:35:12.181632,14.27954846,.0024401,69.9547,316.3191,246.4315,113.4244,0,U,24920,999,50233,.40997E-4,.44E-6,0
TECHSAT 1B (GO-32),1998-043D,2026-07-12T21:55:49.711584,14.24433105,.0002131,99.0083,187.3229,118.0072,242.1321,0,U,25397,999,45499,.29958E-4,.23E-6,0
ISS (ZARYA),1998-067A,2026-07-13T02:54:40.039200,15.48996109,.0006685,51.6304,171.7447,289.3803,70.6462,0,U,25544,999,57577,.86456E-4,.4316E-4,0
IMAGE,2000-017A,2026-07-10T09:33:22.635360,1.68666826,.74160542,94.2468,315.6762,285.1805,9.7435,0,U,26113,999,16189,0,-.42E-6,0
CLUSTER II-FM7 (SAMBA),2000-041A,2026-07-11T16:19:30.897408,0.44896530,.90823116,149.8437,55.3938,272.8334,359.6328,0,U,26410,999,2042,0,.12833E-3,0
CLUSTER II-FM8 (TANGO),2000-045B,2026-07-09T22:48:09.605952,0.44421537,.90851235,150.0571,56.2797,273.5523,2.2662,0,U,26464,999,2041,0,.11224E-3,0
ODIN,2001-007A,2026-07-12T15:51:49.688928,15.88033839,.0004667,97.3743,236.4394,145.8846,214.2726,0,U,26702,999,39342,.10674E-2,.297616E-2,0
OMNI-M1,2001-026A,2026-07-12T04:45:33.675552,3.92401929,.00135643,44.8248,239.4989,57.5507,302.6467,0,U,26857,999,20655,0,.23E-6,0
PCSAT (NO-44),2001-043C,2026-07-12T22:22:20.805600,14.31964496,.0005947,67.0492,177.6826,266.4002,93.6419,0,U,26931,999,29413,.42247E-4,.3E-6,0
PROBA-1,2001-049B,2026-07-13T03:43:35.962176,15.07611032,.0055896,97.9606,203.5954,36.4719,324.0294,0,U,26958,999,34753,.10501E-3,.1584E-4,0
SAUDISAT 1C (SO-50),2002-058C,2026-07-12T21:56:09.314880,14.83095930,.0074595,64.5517,49.3840,257.6999,101.5749,0,U,27607,999,26827,.64575E-4,.395E-5,0
CORIOLIS,2003-001A,2026-07-12T22:00:17.722656,14.19951423,.0014815,98.7134,200.4092,135.2927,224.9446,0,U,27640,999,21787,.47748E-4,.58E-6,0
CUTE-1 (CO-55),2003-031E,2026-07-12T19:38:00.321792,14.24350634,.0010788,98.6742,202.0549,108.7901,251.4449,0,U,27844,999,19532,.88191E-4,.16E-5,0
CUBESAT XI-IV (CO-57),2003-031J,2026-07-12T12:55:06.299904,14.23633637,.00104483,98.6772,201.4707,126.3839,233.8305,0,U,27848,999,19498,.7534821E-4,.128E-5,0
MOZHAETS 4 (RS22),2003-042A,2026-07-13T05:32:11.489856,14.73511286,.0011036,98.3474,19.3269,179.4751,296.3671,0,U,27939,999,21938,.63498E-4,.359E-5,0
